[{"OBJECT_NAME":"STARLINK-31710","OBJECT_ID":"2024-062E","EPOCH":"2026-03-09T17:10:18.837120","MEAN_MOTION":15.30191972,"ECCENTRICITY":0.00012283,"INCLINATION":53.1602,"RA_OF_ASC_NODE":255.6643,"ARG_OF_PERICENTER":96.7544,"MEAN_ANOMALY":263.3597,"EPHEMERIS_TYPE":0,"CLASSIFICATION_TYPE":"U","NORAD_CAT_ID":59378,"ELEMENT_SET_NO":999,"REV_AT_EPOCH":10963,"BSTAR":4.6990441e-5,"MEAN_MOTION_DOT":1.032e-5,"MEAN_MOTION_DDOT":0},{"OBJECT_NAME":"ION SCV-017","OBJECT_ID":"2025-052W","EPOCH":"2026-03-09T17:11:44.577024","MEAN_MOTION":15.26881798,"ECCENTRICITY":0.0023746,"INCLINATION":97.4016,"RA_OF_ASC_NODE":324.7516,"ARG_OF_PERICENTER":44.9875,"MEAN_ANOMALY":315.3282,"EPHEMERIS_TYPE":0,"CLASSIFICATION_TYPE":"U","NORAD_CAT_ID":63230,"ELEMENT_SET_NO":999,"REV_AT_EPOCH":5485,"BSTAR":0.00024539061,"MEAN_MOTION_DOT":6.457e-5,"MEAN_MOTION_DDOT":0}]
